#aV2011  7 24  0  0   .00000000      96 DD+AD WGS84 FIT  NGA
## 1646       .00000000   900.00000000 55766  .0000000000000
+   31     2  3  4  5  6  7  8  9 10 11 12 13 14 15 16 17 18
+         19 20 21 22 23 24 25 26 27 28 29 30 31 32  0  0  0
+          0  0  0  0  0  0  0  0  0  0  0  0  0  0  0  0  0
+          0  0  0  0  0  0  0  0  0  0  0  0  0  0  0  0  0
+          0  0  0  0  0  0  0  0  0  0  0  0  0  0  0  0  0
++         0  0  0  0  0  0  0  0  0  0  0  0  0  0  0  0  0
++         0  0  0  0  0  0  0  0  0  0  0  0  0  0  0  0  0
++         0  0  0  0  0  0  0  0  0  0  0  0  0  0  0  0  0
++         0  0  0  0  0  0  0  0  0  0  0  0  0  0  0  0  0
++         0  0  0  0  0  0  0  0  0  0  0  0  0  0  0  0  0
%c cc cc ccc ccc cccc cccc cccc cccc ccccc ccccc ccccc ccccc
%c cc cc ccc ccc cccc cccc cccc cccc ccccc ccccc ccccc ccccc
%f  0.0000000  0.000000000  0.00000000000  0.000000000000000
%f  0.0000000  0.000000000  0.00000000000  0.000000000000000
%i    0    0    0    0      0      0      0      0         0
%i    0    0    0    0      0      0      0      0         0
/*      NGA, ST. LOUIS,MO.                                  
/*   EPHEMERIS COMPUTED FROM  3 DAYS OF DATA                
/* CCCCCCCCCCCCCCCCCCCCCCCCCCCCCCCCCCCCCCCCCCCCCCCCCCCCCCCCC
/* CCCCCCCCCCCCCCCCCCCCCCCCCCCCCCCCCCCCCCCCCCCCCCCCCCCCCCCCC
*  2011  7 24 19  0   .00000000                                                 
P  2 -22016.927868  12756.738485  -6603.580600    348.141362                    
V  2   4018.356220  -8495.216114 -30021.437706       .017900                    
P  3  13579.803225  -8444.689882  20743.410670    745.994009                    
V  3   8974.745096  26008.293145   4928.215347       .048288                    
P  4 -20228.123513    137.893053 -17595.125334    181.569410                    
V  4  15586.101645 -15445.912901 -17919.636643       .108889                    
P  5 -21067.687403   4229.335364  15669.788560   -194.019611                    
V  5 -18023.016033  -8668.894412 -21768.211325      -.054821                    
P  6  15491.852451  -3175.378135  21489.893126    -84.388263                    
V  6   6223.530551  26305.909662   -361.062186      -.856894                    
P  7  -4531.580108 -15057.309501  21371.417360     19.185945                    
V  7  21343.557084 -16760.233550  -7505.180701       .015271                    
P  8 -13020.167654  -8089.303390  21799.842713      8.612787                    
V  8  22366.834907 -15873.025463   6934.772786       .000508                    
P  9 -12736.820928  20842.112715 -11002.847998     94.835519                    
V  9 -10968.423934   7357.759622  28047.453861       .023858                    
P 10 -25167.973328  -9041.545290    910.502122     -7.816417                    
V 10   -264.808339  -3203.652111 -31206.920013      -.012583                    
P 11  10939.909550 -23420.730024  -5597.302583   -170.901487                    
V 11   8159.528831  -2657.473785  29123.931736      -.032676                    
P 12  -3032.552909  14709.057821 -21905.394011     11.304147                    
V 12 -25993.068800  -9810.922364  -2817.596714       .025131                    
P 13  -4309.036037 -25994.173659   2854.599907    259.616406                    
V 13   1603.507443  -3964.282487 -32157.098837      -.017877                    
P 14  13720.480847  13775.945701 -17999.305411    163.370895                    
V 14   1525.565107  23060.378288  18497.440212       .020321                    
P 15  -6013.841109  21610.290895  14098.833861   -114.215501                    
V 15  -5960.143539 -17154.848427  23927.655575       .019736                    
P 16  20797.033654  -3506.047986  16346.083355   -187.483795                    
V 16  18566.364503   8956.569449 -21422.640998      -.023812                    
P 17 -14629.623018 -12714.535034 -18119.015108    181.421324                    
V 17  -1918.904064 -23173.889550  17451.327333      -.012013                    
P 18  16589.664895  16655.340986  13045.920338    148.838068                    
V 18 -15846.066568  -3240.948914  24545.991636       .019102                    
P 19   9532.585010 -18755.214587  15976.523996   -165.553474                    
V 19   4029.719834  20178.287081  21620.695029      -.040879                    
P 20    355.854797 -16319.364407 -21101.309141     51.011168                    
V 20  25494.791824   7508.808997  -5352.295627       .003548                    
P 21   8470.456056  13731.087781  21487.369685   -160.059974                    
V 21 -20759.132612  16414.850569  -2965.482770      -.025591                    
P 22  24309.323199  10741.164452   1751.835474    145.978075                    
V 22  -3198.916122   2701.218257  30879.216134      -.004393                    
P 23   1059.714640 -25273.845587  -7454.797410    289.394688                    
V 23   4373.081891   8976.475487 -30121.324931      -.028899                    
P 24  10777.311424 -20091.112603 -13321.480876    409.410154                    
V 24  15357.852246  -8108.120910  24854.910570       .033757                    
P 25  10158.728346  16738.577343 -17985.026910     10.650758                    
V 25 -21992.659046  -6064.984670 -18065.868326       .018525                    
P 26 -12362.339496  10746.641331  20215.969937   -101.333064                    
V 26  -3684.357047 -26833.576633  12050.789150      -.121305                    
P 27 -17211.649221  19437.446723  -3958.867305    287.897511                    
V 27  -6030.515437   2135.647076  31908.106163       .037439                    
P 28 -22546.531866 -13371.279010   5570.630782     54.318034                    
V 28   6634.262385    563.124795  30879.969219       .027326                    
P 29   4973.892224  26047.768076   1976.136448    225.816598                    
V 29  -2366.741131   2765.900978 -31625.151503       .031088                    
P 30  25345.830895   2864.510875   7016.029631     27.860773                    
V 30   8202.792089   5443.872426 -30049.757528       .053457                    
P 31  20945.594635  -3405.944649 -15907.922972    115.955281                    
V 31 -14862.343526  14107.517660 -22105.966740       .058188                    
P 32   9390.960405 -12272.272721 -21289.784136   -297.753606                    
V 32  24911.807078  12243.805787   4297.143568      -.071340                    
EOF
